EPOCH,NORAD_CAT_ID,MEAN_MOTION,ECCENTRICITY,INCLINATION,RA_OF_ASC_NODE,ARG_OF_PERICENTER,MEAN_ANOMALY,MEAN_MOTION_DOT,BSTAR,TLE_LINE1,TLE_LINE2
2022-07-03 10:50:09.104928,50803,15.08851568,0.00027200,53.2182,88.1192,64.3119,295.8154,0.00000671,0.00006027900000,1 50803U 22001A   22184.45149427  .00000671  00000-0  60279-4 0  9996,2 50803  53.2182  88.1192 0002720  64.3119 295.8154 15.08851568 27328
2022-07-03 21:57:50.912640,50803,15.08850658,0.00027100,53.2181,86.0375,65.7059,294.4216,0.00000070,0.00002254000000,1 50803U 22001A   22184.91517260  .00000070  00000-0  22540-4 0  9993,2 50803  53.2181  86.0375 0002710  65.7059 294.4216 15.08850658 27394
2022-07-04 02:44:00.883968,50803,15.08843153,0.00025950,53.2187,85.1463,63.3470,296.7787,-0.00001280,-0.00006227900000,1 50803U 22001A   22185.11389912 -.00001280  00000-0 -62279-4 0  9996,2 50803  53.2187  85.1463 0002595  63.3470 296.7787 15.08843153 28694
2022-07-04 10:40:57.646560,50803,15.08829674,0.00025540,53.2176,83.6589,66.8531,293.2730,-0.00002918,-0.00016532000000,1 50803U 22001A   22185.44511165 -.00002918  00000-0 -16532-3 0  9998,2 50803  53.2176  83.6589 0002554  66.8531 293.2730 15.08829674 27472
2022-07-04 17:02:30.214752,50803,15.08829340,0.00027250,53.2183,82.4697,64.3502,295.7771,-0.00001790,-0.00009438700000,1 50803U 22001A   22185.71007193 -.00001790  00000-0 -94387-4 0  9991,2 50803  53.2183  82.4697 0002725  64.3502 295.7771 15.08829340 28785
2022-07-04 21:48:39.500064,50803,15.08831511,0.00026460,53.2181,81.5780,65.0532,295.0735,-0.00001452,-0.00007313000000,1 50803U 22001A   22185.90879051 -.00001452  00000-0 -73130-4 0  9990,2 50803  53.2181  81.5780 0002646  65.0532 295.0735 15.08831511 27548
2022-07-05 10:31:44.137920,50803,15.08840145,0.00026320,53.2179,79.1985,66.9330,293.1940,-0.00001201,-0.00005736700000,1 50803U 22001A   22186.43870530 -.00001201  00000-0 -57367-4 0  9998,2 50803  53.2179  79.1985 0002632  66.9330 293.1940 15.08840145 27625
2022-07-05 16:53:16.582560,50803,15.08843257,0.00027160,53.2178,78.0092,67.1240,293.0038,-0.00001484,-0.00007510800000,1 50803U 22001A   22186.70366415 -.00001484  00000-0 -75108-4 0  9996,2 50803  53.2178  78.0092 0002716  67.1240 293.0038 15.08843257 28936
2022-07-05 21:39:25.869600,50803,15.08841181,0.00025600,53.2180,77.1174,66.4782,293.6479,-0.00000445,-0.00000983730000,1 50803U 22001A   22186.90238275 -.00000445  00000-0 -98373-5 0  9996,2 50803  53.2180  77.1174 0002560  66.4782 293.6479 15.08841181 27691
2022-07-06 02:25:35.218848,50803,15.08839911,0.00026670,53.2179,76.2251,66.8519,293.2754,0.00000267,0.00003489400000,1 50803U 22001A   22187.10110207  .00000267  00000-0  34894-4 0  9990,2 50803  53.2179  76.2251 0002667  66.8519 293.2754 15.08839911 27729
2022-07-06 23:05:36.525120,50803,15.08833132,0.00026170,53.2181,72.3591,69.6372,290.4901,0.00000734,0.00006422300000,1 50803U 22001A   22187.96222830  .00000734  00000-0  64223-4 0  9998,2 50803  53.2181  72.3591 0002617  69.6372 290.4901 15.08833132 27855
2022-07-07 02:16:23.022624,50803,15.08831970,0.00025810,53.2184,71.7645,68.5979,291.5289,0.00000091,0.00002383900000,1 50803U 22001A   22188.09471091  .00000091  00000-0  23839-4 0  9992,2 50803  53.2184  71.7645 0002581  68.5979 291.5289 15.08831970 27873
2022-07-07 21:20:59.996256,50803,15.08843353,0.00025630,53.2180,68.1963,69.6281,290.4986,0.00000526,0.00005113800000,1 50803U 22001A   22188.88958329  .00000526  00000-0  51138-4 0  9999,2 50803  53.2180  68.1963 0002563  69.6281 290.4986 15.08843353 27993
2022-07-08 02:07:08.991264,50803,15.08849500,0.00025770,53.2183,67.3035,69.9615,290.1654,0.00000606,0.00005616400000,1 50803U 22001A   22189.08829851  .00000606  00000-0  56164-4 0  9992,2 50803  53.2183  67.3035 0002577  69.9615 290.1654 15.08849500 29290
2022-07-08 08:28:41.740896,50803,15.08844700,0.00025830,53.2185,66.1136,69.4473,290.6797,0.00000266,0.00003483600000,1 50803U 22001A   22189.35326089  .00000266  00000-0  34836-4 0  9991,2 50803  53.2185  66.1136 0002583  69.4473 290.6797 15.08844700 28069
2022-07-08 19:36:23.111424,50803,15.08847197,0.00025110,53.2182,64.0319,72.4110,287.7156,0.00001440,0.00010854000000,1 50803U 22001A   22189.81693416  .00001440  00000-0  10854-3 0  9991,2 50803  53.2182  64.0319 0002511  72.4110 287.7156 15.08847197 28136
2022-07-09 01:57:55.310688,50803,15.08850450,0.00025130,53.2182,62.8432,71.2363,288.8902,0.00001730,0.00012677000000,1 50803U 22001A   22190.08189017  .00001730  00000-0  12677-3 0  9996,2 50803  53.2182  62.8432 0002513  71.2363 288.8902 15.08850450 29449
2022-07-09 08:19:27.760512,50803,15.08849970,0.00025230,53.2183,61.6537,71.1402,288.9863,0.00001518,0.00011344000000,1 50803U 22001A   22190.34684908  .00001518  00000-0  11344-3 0  9998,2 50803  53.2183  61.6537 0002523  71.1402 288.9863 15.08849970 28213
2022-07-09 16:16:24.651840,50803,15.08837767,0.00022200,53.2182,60.1670,71.9812,288.1422,-0.00002179,-0.00011881000000,1 50803U 22001A   22190.67806310 -.00002179  00000-0 -11881-3 0  9999,2 50803  53.2182  60.1670 0002220  71.9812 288.1422 15.08837767 29531
2022-07-09 16:16:24.651840,50803,15.08837767,0.00022200,53.2182,60.1670,71.9812,288.1422,-0.00002179,-0.00011881000000,1 50803U 22001A   22190.67806310 -.00002179  00000-0 -11881-3 0  9999,2 50803  53.2182  60.1670 0002220  71.9812 288.1422 15.08837767 28260
2022-07-10 00:13:22.482336,50803,15.08812448,0.00021780,53.2192,58.6845,70.7525,289.3703,-0.00004732,-0.00027959000000,1 50803U 22001A   22191.00928799 -.00004732  00000-0 -27959-3 0  9993,2 50803  53.2192  58.6845 0002178  70.7525 289.3703 15.08812448 29587
2022-07-10 08:10:18.777504,50803,15.08810115,0.00022940,53.2187,57.1974,76.0715,284.0532,-0.00004703,-0.00027780000000,1 50803U 22001A   22191.34049511 -.00004703  00000-0 -27780-3 0  9996,2 50803  53.2187  57.1974 0002294  76.0715 284.0532 15.08810115 28363
2022-07-10 20:53:23.030016,50803,15.08828537,0.00020350,53.2182,54.8145,70.7910,289.3302,-0.00002843,-0.00016061000000,1 50803U 22001A   22191.87040544 -.00002843  00000-0 -16061-3 0  9994,2 50803  53.2182  54.8145 0002035  70.7910 289.3302 15.08828537 28442
2022-07-11 00:04:08.955552,50803,15.08832109,0.00019770,53.2179,54.2189,74.8828,285.2383,-0.00001908,-0.00010184000000,1 50803U 22001A   22192.00288143 -.00001908  00000-0 -10184-3 0  9990,2 50803  53.2179  54.2189 0001977  74.8828 285.2383 15.08832109 29734
2022-07-11 08:01:03.804384,50803,15.08842754,0.00018060,53.2177,52.7325,70.7116,289.4072,-0.00000127,0.00001010500000,1 50803U 22001A   22192.33407181 -.00000127  00000-0  10105-4 0  9996,2 50803  53.2177  52.7325 0001806  70.7116 289.4072 15.08842754 28516
2022-07-11 08:01:03.804384,50803,15.08842754,0.00018060,53.2177,52.7325,70.7116,289.4072,-0.00000127,0.00001010500000,1 50803U 22001A   22192.33407181 -.00000127  00000-0  10105-4 0  9996,2 50803  53.2177  52.7325 0001806  70.7116 289.4072 15.08842754 29786
2022-07-11 20:44:08.574432,50803,15.08841766,0.00018010,53.2183,50.3540,66.6420,293.4761,0.00002551,0.00017833000000,1 50803U 22001A   22192.86398813  .00002551  00000-0  17833-3 0  9991,2 50803  53.2183  50.3540 0001801  66.6420 293.4761 15.08841766 28593
2022-07-12 07:51:50.846112,50803,15.08832387,0.00015320,53.2188,48.2721,66.0583,294.0569,0.00005135,0.00034053000000,1 50803U 22001A   22193.32767183  .00005135  00000-0  34053-3 0  9997,2 50803  53.2188  48.2721 0001532  66.0583 294.0569 15.08832387 28660
2022-07-12 20:34:51.463776,50803,15.09024594,0.00006000,53.2186,45.8932,86.8975,273.2086,-0.00035256,-0.00219690000000,1 50803U 22001A   22193.85754009 -.00035256  00000-0 -21969-2 0  9998,2 50803  53.2186  45.8932 0000600  86.8975 273.2086 15.09024594 28741
2022-07-13 01:21:06.244992,50803,15.08811502,0.00019130,53.2184,45.0014,63.0844,297.0344,0.00010896,0.00070217000000,1 50803U 22001A   22194.05632228  .00010896  00000-0  70217-3 0  9991,2 50803  53.2184  45.0014 0001913  63.0844 297.0344 15.08811502 30041
2022-07-13 07:42:37.569888,50803,15.08850510,0.00017750,53.2185,43.8119,68.6719,291.4463,0.00000886,0.00007371000000,1 50803U 22001A   22194.32126817  .00000886  00000-0  73710-4 0  9993,2 50803  53.2185  43.8119 0001775  68.6719 291.4463 15.08850510 28816
2022-07-13 07:42:37.569888,50803,15.08850510,0.00017750,53.2185,43.8119,68.6719,291.4463,0.00000886,0.00007371000000,1 50803U 22001A   22194.32126817  .00000886  00000-0  73710-4 0  9993,2 50803  53.2185  43.8119 0001775  68.6719 291.4463 15.08850510 30088
2022-07-13 20:25:42.697632,50803,15.08847231,0.00016650,53.2181,41.4330,69.3288,290.7883,-0.00000660,-0.00002335400000,1 50803U 22001A   22194.85118863 -.00000660  00000-0 -23354-4 0  9994,2 50803  53.2181  41.4330 0001665  69.3288 290.7883 15.08847231 28890
2022-07-13 20:25:42.697632,50803,15.08847231,0.00016650,53.2181,41.4330,69.3288,290.7883,-0.00000660,-0.00002335400000,1 50803U 22001A   22194.85118863 -.00000660  00000-0 -23354-4 0  9994,2 50803  53.2181  41.4330 0001665  69.3288 290.7883 15.08847231 30163
2022-07-14 12:19:34.836096,50803,15.08834999,0.00017160,53.2180,38.4595,69.3525,290.7651,-0.00002248,-0.00012317000000,1 50803U 22001A   22195.51359764 -.00002248  00000-0 -12317-3 0  9995,2 50803  53.2180  38.4595 0001716  69.3525 290.7651 15.08834999 28990
2022-07-14 20:16:30.027072,50803,15.08840727,0.00016810,53.2185,36.9738,65.3308,294.7859,-0.00001282,-0.00006245400000,1 50803U 22001A   22195.84479198 -.00001282  00000-0 -62454-4 0  9990,2 50803  53.2185  36.9738 0001681  65.3308 294.7859 15.08840727 29040
2022-07-14 20:16:30.027072,50803,15.08840727,0.00016810,53.2185,36.9738,65.3308,294.7859,-0.00001282,-0.00006245400000,1 50803U 22001A   22195.84479198 -.00001282  00000-0 -62454-4 0  9990,2 50803  53.2185  36.9738 0001681  65.3308 294.7859 15.08840727 30312
2022-07-15 05:48:48.335904,50803,15.08850105,0.00015520,53.2184,35.1896,66.2355,293.8800,-0.00002102,-0.00011397000000,1 50803U 22001A   22196.24222611 -.00002102  00000-0 -11397-3 0  9992,2 50803  53.2184  35.1896 0001552  66.2355 293.8800 15.08850105 30379
